[{"OBJECT_NAME":"TYVAK-182A","OBJECT_ID":"2021-034D","EPOCH":"2026-03-09T17:04:17.866560","MEAN_MOTION":15.0515042,"ECCENTRICITY":0.00048625,"INCLINATION":97.5843,"RA_OF_ASC_NODE":129.3711,"ARG_OF_PERICENTER":316.565,"MEAN_ANOMALY":43.5193,"EPHEMERIS_TYPE":0,"CLASSIFICATION_TYPE":"U","NORAD_CAT_ID":48271,"ELEMENT_SET_NO":999,"REV_AT_EPOCH":26486,"BSTAR":0.00050672592,"MEAN_MOTION_DOT":7.163e-5,"MEAN_MOTION_DDOT":0},{"OBJECT_NAME":"STARLINK-5581","OBJECT_ID":"2023-013AU","EPOCH":"2026-03-09T09:34:16.326912","MEAN_MOTION":15.02526345,"ECCENTRICITY":0.00010596,"INCLINATION":43.0042,"RA_OF_ASC_NODE":315.0685,"ARG_OF_PERICENTER":243.296,"MEAN_ANOMALY":116.7774,"EPHEMERIS_TYPE":0,"CLASSIFICATION_TYPE":"U","NORAD_CAT_ID":55373,"ELEMENT_SET_NO":999,"REV_AT_EPOCH":17151,"BSTAR":0.00010227581,"MEAN_MOTION_DOT":1.178e-5,"MEAN_MOTION_DDOT":0}]
