TYVAK-182A              
1 48271U 21034D   26068.71131789  .00007163  00000+0  50673-3 0  9991
2 48271  97.5843 129.3711 0004862 316.5650  43.5193 15.05150420264864
STARLINK-5581           
1 55373U 23013AU  26068.39880008  .00001178  00000+0  10228-3 0  9992
2 55373  43.0042 315.0685 0001059 243.2960 116.7774 15.02526345171518
